OBJECT_NAME,OBJECT_ID,EPOCH,MEAN_MOTION,ECCENTRICITY,INCLINATION,RA_OF_ASC_NODE,ARG_OF_PERICENTER,MEAN_ANOMALY,EPHEMERIS_TYPE,CLASSIFICATION_TYPE,NORAD_CAT_ID,ELEMENT_SET_NO,REV_AT_EPOCH,BSTAR,MEAN_MOTION_DOT,MEAN_MOTION_DDOT
ONEWEB-0410,2022-012A,2026-07-12T23:01:52.477824,13.17650014,.00019766,87.9161,0.7330,57.4729,302.6594,0,U,51622,999,21709,-.16485503E-3,-.51E-6,0
ONEWEB-0411,2022-012B,2026-07-12T23:23:50.640288,13.10378041,.00022553,87.8823,31.1287,96.1829,263.9556,0,U,51623,999,21266,-.64056039E-3,-.211E-5,0
ONEWEB-0415,2022-012C,2026-07-12T14:09:10.328832,13.10377986,.0002134,87.8822,31.2038,87.5344,272.6027,0,U,51624,999,21261,-.92666E-3,-.311E-5,0
ONEWEB-0416,2022-012D,2026-07-12T23:36:04.427712,13.10377613,.00021987,87.8815,31.1420,84.3252,275.8126,0,U,51625,999,21270,.59616314E-3,.221E-5,0
ONEWEB-0422,2022-012E,2026-07-12T21:27:06.048000,13.17650849,.00017781,87.9148,0.7462,114.5254,245.6063,0,U,51626,999,21719,.11998377E-3,.59E-6,0
ONEWEB-0423,2022-012F,2026-07-12T21:17:23.216064,13.17647966,.00018624,87.9154,0.7509,89.6306,270.5039,0,U,51627,999,21708,.11772354E-3,.59E-6,0
ONEWEB-0425,2022-012G,2026-07-12T22:00:47.939328,13.10376101,.00018326,87.8815,31.1389,74.3990,285.7339,0,U,51628,999,21269,.16754512E-2,.598E-5,0
ONEWEB-0428,2022-012H,2026-07-12T14:11:37.221792,13.10378417,.000184,87.8810,31.2103,85.6892,274.4445,0,U,51629,999,21261,-.68111E-3,-.225E-5,0
ONEWEB-0431,2022-012J,2026-07-12T22:37:11.573184,13.10369311,.00023134,87.8815,31.1340,98.8553,261.2837,0,U,51630,999,21271,-.376577E-6,.13E-6,0
ONEWEB-0434,2022-012K,2026-07-12T23:55:50.396448,13.10374936,.00016202,87.8821,31.1486,66.8355,293.2943,0,U,51631,999,21270,.20058068E-2,.713E-5,0
ONEWEB-0435,2022-012L,2026-07-12T22:15:26.995392,13.10374667,.0001915,87.8820,31.1482,100.5101,259.6243,0,U,51632,999,21268,.15335659E-2,.548E-5,0
ONEWEB-0436,2022-012M,2026-07-12T21:05:13.674336,13.17647429,.00019049,87.9150,0.7359,99.0770,261.0578,0,U,51633,999,21706,.20551107E-4,.21E-6,0
ONEWEB-0438,2022-012N,2026-07-12T23:43:23.359584,13.10377986,.0001856,87.8813,31.1388,79.0830,281.0506,0,U,51634,999,21272,.12451268E-2,.447E-5,0
ONEWEB-0439,2022-012P,2026-07-12T23:48:17.572320,13.10376225,.0001763,87.8816,31.1249,85.3800,274.7528,0,U,51635,999,21270,.16246491E-2,.58E-5,0
ONEWEB-0442,2022-012Q,2026-07-12T20:54:19.113984,13.17650864,.00018244,87.9140,0.7678,73.0567,287.0765,0,U,51636,999,21705,-.16204539E-4,.7E-7,0
ONEWEB-0443,2022-012R,2026-07-12T21:22:14.163744,13.17648621,.00014689,87.9139,0.7653,94.0011,266.1289,0,U,51637,999,21710,-.45372956E-3,-.163E-5,0
ONEWEB-0444,2022-012S,2026-07-12T23:33:36.605952,13.10378665,.00015972,87.8820,31.1259,88.1479,271.9832,0,U,51638,999,21271,.62419882E-3,.231E-5,0
ONEWEB-0445,2022-012T,2026-07-13T00:02:56.738976,13.10375761,.00019172,87.8823,31.1118,86.2868,273.8479,0,U,51639,999,21272,.21183844E-2,.752E-5,0
ONEWEB-0446,2022-012U,2026-07-12T23:31:08.537088,13.10373479,.00019212,87.8840,31.1429,86.4747,273.6600,0,U,51640,999,21270,.45626736E-2,.1606E-4,0
ONEWEB-0448,2022-012V,2026-07-12T23:38:30.117120,13.10378744,.0001781,87.8815,31.1382,86.3807,273.7524,0,U,51641,999,21267,.8894262E-3,.323E-5,0
ONEWEB-0449,2022-012W,2026-07-12T23:45:49.860288,13.10375946,.00019154,87.8817,31.1244,68.0559,292.0771,0,U,51642,999,21268,.16618958E-2,.593E-5,0
ONEWEB-0451,2022-012X,2026-07-12T21:00:22.388832,13.17650974,.00017338,87.9153,0.7348,85.5338,274.5991,0,U,51643,999,21704,.11067192E-4,.17E-6,0
ONEWEB-0452,2022-012Y,2026-07-12T20:57:56.315808,13.17647604,.00015839,87.9141,0.7695,88.5457,271.5856,0,U,51644,999,21705,.29973478E-4,.25E-6,0
ONEWEB-0456,2022-012AA,2026-07-12T23:58:02.021664,13.10372563,.00017541,87.8826,31.1112,91.7435,268.3893,0,U,51646,999,21272,.20434855E-2,.726E-5,0
ONEWEB-0457,2022-012AB,2026-07-12T23:26:04.569792,13.10379152,.00021119,87.8818,31.1318,78.5008,281.6356,0,U,51647,999,21272,-.42675679E-3,-.136E-5,0
ONEWEB-0458,2022-012AC,2026-07-12T23:56:50.108352,13.10373709,.00016135,87.8817,31.1155,85.7650,274.3662,0,U,51648,999,21268,.2036828E-2,.724E-5,0
ONEWEB-0461,2022-012AD,2026-07-13T01:08:14.109792,13.17649933,.00019642,87.9151,0.7144,89.7180,270.4176,0,U,51649,999,21729,-.1335588E-5,.12E-6,0
ONEWEB-0463,2022-012AE,2026-07-12T21:02:48.588000,13.17650188,.00021245,87.9156,0.7703,91.2950,268.8425,0,U,51650,999,21705,-.14993442E-3,-.45E-6,0
ONEWEB-0464,2022-012AF,2026-07-12T22:03:13.239936,13.10373884,.00015882,87.8815,31.1526,93.5128,266.6181,0,U,51651,999,21269,.18811149E-2,.669E-5,0
ONEWEB-0468,2022-012AG,2026-07-13T00:00:28.836864,13.10371833,.00016811,87.8812,31.1293,93.6541,266.4778,0,U,51652,999,21268,.20290252E-2,.721E-5,0
