ONEWEB-0410             
1 51622U 22012A   26193.95963516 -.00000051  00000+0 -16486-3 0  9993
2 51622  87.9161   0.7330 0001976  57.4729 302.6594 13.17650014217096
ONEWEB-0411             
1 51623U 22012B   26193.97489167 -.00000211  00000+0 -64056-3 0  9995
2 51623  87.8823  31.1287 0002255  96.1829 263.9556 13.10378041212667
ONEWEB-0415             
1 51624U 22012C   26193.58970288 -.00000311  00000+0 -92666-3 0  9991
2 51624  87.8822  31.2038 0002134  87.5344 272.6027 13.10377986212616
ONEWEB-0416             
1 51625U 22012D   26193.98338458  .00000221  00000+0  59616-3 0  9999
2 51625  87.8815  31.1420 0002198  84.3252 275.8126 13.10377613212708
ONEWEB-0422             
1 51626U 22012E   26193.89382000  .00000059  00000+0  11998-3 0  9992
2 51626  87.9148   0.7462 0001778 114.5254 245.6063 13.17650849217193
ONEWEB-0423             
1 51627U 22012F   26193.88707426  .00000059  00000+0  11772-3 0  9995
2 51627  87.9154   0.7509 0001862  89.6306 270.5039 13.17647966217081
ONEWEB-0425             
1 51628U 22012G   26193.91722152  .00000598  00000+0  16755-2 0  9996
2 51628  87.8815  31.1389 0001832  74.3990 285.7339 13.10376101212692
ONEWEB-0428             
1 51629U 22012H   26193.59140303 -.00000225  00000+0 -68111-3 0  9996
2 51629  87.8810  31.2103 0001840  85.6892 274.4445 13.10378417212615
ONEWEB-0431             
1 51630U 22012J   26193.94249506  .00000013  00000+0 -37658-6 0  9991
2 51630  87.8815  31.1340 0002313  98.8553 261.2837 13.10369311212713
ONEWEB-0434             
1 51631U 22012K   26193.99711107  .00000713  00000+0  20058-2 0  9996
2 51631  87.8821  31.1486 0001620  66.8355 293.2943 13.10374936212708
ONEWEB-0435             
1 51632U 22012L   26193.92739578  .00000548  00000+0  15336-2 0  9991
2 51632  87.8820  31.1482 0001915 100.5101 259.6243 13.10374667212683
ONEWEB-0436             
1 51633U 22012M   26193.87863049  .00000021  00000+0  20551-4 0  9990
2 51633  87.9150   0.7359 0001904  99.0770 261.0578 13.17647429217069
ONEWEB-0438             
1 51634U 22012N   26193.98846481  .00000447  00000+0  12451-2 0  9994
2 51634  87.8813  31.1388 0001856  79.0830 281.0506 13.10377986212728
ONEWEB-0439             
1 51635U 22012P   26193.99187005  .00000580  00000+0  16246-2 0  9990
2 51635  87.8816  31.1249 0001763  85.3800 274.7528 13.10376225212708
ONEWEB-0442             
1 51636U 22012Q   26193.87105456  .00000007  00000+0 -16205-4 0  9990
2 51636  87.9140   0.7678 0001824  73.0567 287.0765 13.17650864217054
ONEWEB-0443             
1 51637U 22012R   26193.89044171 -.00000163  00000+0 -45373-3 0  9990
2 51637  87.9139   0.7653 0001468  94.0011 266.1289 13.17648621217100
ONEWEB-0444             
1 51638U 22012S   26193.98167368  .00000231  00000+0  62420-3 0  9991
2 51638  87.8820  31.1259 0001597  88.1479 271.9832 13.10378665212713
ONEWEB-0445             
1 51639U 22012T   26194.00204559  .00000752  00000+0  21184-2 0  9999
2 51639  87.8823  31.1118 0001917  86.2868 273.8479 13.10375761212721
ONEWEB-0446             
1 51640U 22012U   26193.97995992  .00001606  00000+0  45627-2 0  9991
2 51640  87.8840  31.1429 0001921  86.4747 273.6600 13.10373479212706
ONEWEB-0448             
1 51641U 22012V   26193.98507080  .00000323  00000+0  88943-3 0  9994
2 51641  87.8815  31.1382 0001781  86.3807 273.7524 13.10378744212679
ONEWEB-0449             
1 51642U 22012W   26193.99016042  .00000593  00000+0  16619-2 0  9998
2 51642  87.8817  31.1244 0001915  68.0559 292.0771 13.10375946212689
ONEWEB-0451             
1 51643U 22012X   26193.87525913  .00000017  00000+0  11067-4 0  9993
2 51643  87.9153   0.7348 0001733  85.5338 274.5991 13.17650974217046
ONEWEB-0452             
1 51644U 22012Y   26193.87356847  .00000025  00000+0  29973-4 0  9996
2 51644  87.9141   0.7695 0001583  88.5457 271.5856 13.17647604217051
ONEWEB-0456             
1 51646U 22012AA  26193.99863451  .00000726  00000+0  20435-2 0  9995
2 51646  87.8826  31.1112 0001754  91.7435 268.3893 13.10372563212722
ONEWEB-0457             
1 51647U 22012AB  26193.97644178 -.00000136  00000+0 -42676-3 0  9996
2 51647  87.8818  31.1318 0002111  78.5008 281.6356 13.10379152212722
ONEWEB-0458             
1 51648U 22012AC  26193.99780218  .00000724  00000+0  20368-2 0  9999
2 51648  87.8817  31.1155 0001613  85.7650 274.3662 13.10373709212686
ONEWEB-0461             
1 51649U 22012AD  26194.04738553  .00000012  00000+0 -13356-5 0  9995
2 51649  87.9151   0.7144 0001964  89.7180 270.4176 13.17649933217291
ONEWEB-0463             
1 51650U 22012AE  26193.87695125 -.00000045  00000+0 -14993-3 0  9997
2 51650  87.9156   0.7703 0002124  91.2950 268.8425 13.17650188217057
ONEWEB-0464             
1 51651U 22012AF  26193.91890324  .00000669  00000+0  18811-2 0  9993
2 51651  87.8815  31.1526 0001588  93.5128 266.6181 13.10373884212693
ONEWEB-0468             
1 51652U 22012AG  26194.00033376  .00000721  00000+0  20290-2 0  9994
2 51652  87.8812  31.1293 0001681  93.6541 266.4778 13.10371833212687
